[{"OBJECT_NAME":"STARLINK-35633","OBJECT_ID":"2025-240S","EPOCH":"2026-03-09T06:10:18.996384","MEAN_MOTION":15.30186772,"ECCENTRICITY":0.00014847,"INCLINATION":53.1605,"RA_OF_ASC_NODE":64.7039,"ARG_OF_PERICENTER":115.4098,"MEAN_ANOMALY":244.7056,"EPHEMERIS_TYPE":0,"CLASSIFICATION_TYPE":"U","NORAD_CAT_ID":66162,"ELEMENT_SET_NO":999,"REV_AT_EPOCH":2192,"BSTAR":0.00045942391,"MEAN_MOTION_DOT":0.00013266,"MEAN_MOTION_DDOT":0},{"OBJECT_NAME":"OBJECT BC","OBJECT_ID":"2025-313BC","EPOCH":"2026-03-09T04:33:08.504064","MEAN_MOTION":15.29126358,"ECCENTRICITY":0.00084789,"INCLINATION":97.3985,"RA_OF_ASC_NODE":144.811,"ARG_OF_PERICENTER":328.9209,"MEAN_ANOMALY":31.1528,"EPHEMERIS_TYPE":0,"CLASSIFICATION_TYPE":"U","NORAD_CAT_ID":67298,"ELEMENT_SET_NO":999,"REV_AT_EPOCH":789,"BSTAR":0.0026410397,"MEAN_MOTION_DOT":0.00075331,"MEAN_MOTION_DDOT":0}]
